line1,line2,validFromUtcTime
1 00000U 00000E   26001.00000000  .00000000  00000-0  27772-4 0    01,2 00000  88.9641  15.3307 0010111 270.1858  22.4553 13.55290471    00,2026-01-01T00:00:00Z
1 00000U 00000E   26002.00000000  .00000000  00000-0  27772-4 0    02,2 00000  88.9641  15.2253 0010111 267.2751 221.4995 13.55290509    01,2026-01-02T00:00:00Z
